GORIZONT 1 [-]          
1 11158U 78118A   22219.41201351 -.00000066  00000+0  00000+0 0  9995
2 11158  11.0892 203.4329 3471428 283.9425  40.1996  1.00303892108806
GORIZONT 2 [-]          
1 11440U 79062A   22220.82319451  .00000053  00000+0  00000+0 0  9991
2 11440   9.1663 301.2341 0002673 235.0211 137.1122  1.00273106123905
GORIZONT 3 [-]          
1 11648U 79105A   22220.82197372  .00000090  00000+0  00000+0 0  9996
2 11648   9.3256 302.6655 0014129 210.7826 152.9365  1.00329998108367
GORIZONT 4 [-]          
1 11841U 80049A   22220.95818068 -.00000109  00000+0  00000+0 0  9998
2 11841  10.4747 308.4233 0001142 169.5388 201.2736  0.98630678219663
GORIZONT 5 [-]          
1 13092U 82020A   22220.75049497  .00000030  00000+0  00000+0 0  9991
2 13092  11.4649 313.7051 0034475 210.9612 141.9341  0.98530020107701
GORIZONT 6 [-]          
1 13624U 82103A   22220.60710573  .00000097  00000+0  00000+0 0  9991
2 13624  10.3853 313.7393 0003145 173.6883 236.2741  1.00273267106815
GORIZONT 7 [-]          
1 14160U 83066A   22221.01229986 -.00000034  00000+0  00000+0 0  9997
2 14160  12.0406 323.0493 0008334 314.3750  89.3670  0.98347430140941
GORIZONT 8 [-]          
1 14532U 83118A   22221.29691172 -.00000091  00000+0  00000+0 0  9991
2 14532  12.2124 324.8935 0030896 149.2040 242.3399  0.98269692106706
GORIZONT 9 [-]          
1 14940U 84041A   22220.70674501 -.00000207  00000+0  00000+0 0  9991
2 14940  11.4061 322.9444 0004830 200.9905 136.3140  1.00233261107814
GORIZONT 10 [-]         
1 15144U 84078A   22220.48903071  .00000122  00000+0  00000+0 0  9995
2 15144  11.5001 323.9726 0001542 135.5209 244.8062  1.00199879140481
GORIZONT 11 [-]         
1 15484U 85007A   22220.79702017 -.00000150  00000+0  00000+0 0  9998
2 15484  11.6795 325.9422 0005135 148.9784 206.5358  1.00395038138500
GORIZONT 12 [-]         
1 16769U 86044A   22221.34285483 -.00000069  00000+0  00000+0 0  9991
2 16769  12.2916 331.2957 0001964 175.6885   7.1432  1.00196905133153
GORIZONT 13 [-]         
1 17083U 86090A   22220.61377685 -.00000136  00000+0  00000+0 0  9992
2 17083  14.1625 338.4524 0012062 343.6210  48.8001  0.96726992105028
GORIZONT 14 [-]         
1 17969U 87040A   22221.49985330 -.00000106  00000+0  00000+0 0  9997
2 17969  13.1157 329.8679 0032604 172.1487 205.3578  0.97659165106107
GORIZONT 15 [-]         
1 19017U 88028A   22221.13730101 -.00000179  00000+0  00000+0 0  9995
2 19017  14.4464 341.2856 0038835 154.1480 206.3319  0.97828957105715
GORIZONT 16 [-]         
1 19397U 88071A   22221.30289392 -.00000292  00000+0  00000+0 0  9990
2 19397  13.2980 339.9697 0014819  68.0304 320.0532  0.99976286124158
GORIZONT 17 [-]         
1 19765U 89004A   22220.92888138  .00000045  00000+0  00000+0 0  9991
2 19765  13.8408 343.3114 0024703 131.5550  46.5124  0.99064858121611
GORIZONT 18 [-]         
1 20107U 89052A   22220.51848591  .00000067  00000+0  00000+0 0  9994
2 20107  13.8830 344.5765 0032686 318.5483  73.2625  0.99398699120411
GORIZONT 19 [-]         
1 20263U 89081A   22220.46224062  .00000088  00000+0  00000+0 0  9997
2 20263  13.6136 343.7699 0003832 184.6245   3.3579  1.00331766120368
GORIZONT 20 [-]         
1 20659U 90054A   22220.70785090 -.00000302  00000+0  00000+0 0  9998
2 20659  14.0464 346.5964 0007234 160.5395 161.7011  1.00280027117562
GORIZONT 21 [-]         
1 20923U 90094A   22220.33313132 -.00000175  00000+0  00000+0 0  9997
2 20923  14.0588 347.3701 0005022 187.7627 163.9458  1.00387896116316
GORIZONT 22 [-]         
1 20953U 90102A   22220.69702215 -.00000296  00000+0  00000+0 0  9997
2 20953  14.0166 347.7340 0002858  41.5465 318.9191  1.00286040116242
GORIZONT 23 [-]         
1 21533U 91046A   22219.98105229  .00000041  00000+0  00000+0 0  9999
2 21533  14.7722 351.8787 0002037 331.6415  52.3115  0.98906257 32753
GORIZONT 24 [-]         
1 21759U 91074A   22220.59261872 -.00000219  00000+0  00000+0 0  9994
2 21759  14.9238 353.7719 0017252 220.3172 130.9918  0.98445626111088
GORIZONT 25 [-]         
1 21922U 92017A   22220.49910380  .00000110  00000+0  00000+0 0  9997
2 21922  14.4668 353.1106 0030056  82.8692 103.5594  0.99847214110873
GORIZONT 26 [-]         
1 22041U 92043A   22221.30166503 -.00000219  00000+0  00000+0 0  9991
2 22041  14.6339 355.1001 0029851 231.3655 139.3736  0.99243383109522
GORIZONT 27 [-]         
1 22245U 92082A   22220.90036684 -.00000196  00000+0  00000+0 0  9995
2 22245  14.5513 354.7053 0011687  17.5362 356.0690  1.00140904113014
GORIZONT 28 [-]         
1 22880U 93069A   22221.44052271 -.00000088  00000+0  00000+0 0  9996
2 22880  14.6863 358.5562 0035861 130.7586 251.0917  0.99648369105114
GORIZONT 29 [-]         
1 22907U 93072A   22221.09997148  .00000002  00000+0  00000+0 0  9997
2 22907  14.5990 358.0260 0008943 354.8917   8.6987  1.00156454105106
GORIZONT 30 [-]         
1 23108U 94030A   22221.26915178 -.00000276  00000+0  00000+0 0  9992
2 23108  14.6106 358.9329 0002972 136.3075  62.8518  1.00288682103377
GORIZONT 31 [-]         
1 23775U 96005A   22221.41371476 -.00000158  00000+0  00000+0 0  9999
2 23775  14.5121   5.1313 0018356 197.0477 174.7711  0.99884324 96988
GORIZONT 32 [-]         
1 23880U 96034A   22220.60133900  .00000073  00000+0  00000+0 0  9991
2 23880  14.4598   5.6579 0008221   1.8054  28.2531  1.00157450 95926
GORIZONT 33 [-]         
1 26372U 00029A   22220.80418484 -.00000264  00000+0  00000+0 0  9997
2 26372  13.1568  16.8157 0004818  96.2244  98.0214  1.00322330 81302
